"STASLIST","LOC","STA","STA2","STATION","NAME","LHOLD","HOLDCERT","NEARTOWN","COUNTY","STATE","REGION","LATITUDE","LONGITUDE","PRECISION","SOURCE","DATUM","DECLAT","DECLNG","NAD83","ELEV","STRATUM","BCR","HABITAT","D89","D90","D91","D92","D93","D94","D95","D96","D97","D98","D99","D00","D01","D02","D03","D04","D05","D06","Y07","D07","Y08","D08","Y09","D09","Y10","D10","Y11","D11","Y12","D12","Y13","D13","Y14","D14","Y15","D15","Y16","D16","Y17","D17","Y18","D18","HISTORY","YRSOP"
"11139 - MTBA - FRLA - Frog Lake","MTBA",11139,"11139U","FRLA","Frog Lake","AF","+","Darrington","Snohomish","WA","1","48 12 28","-121 34 33","01S","GPS -SPORTTRAK","NAD83",48.20778,-121.57583,"x",317,67,9,"dry mixed coniferous forest",,,,"X","X","X","X","X","X","X","X","X","X","X","X","X","X","X","X","X","X","X","X","X","X","X","X","X",,,,,,,,,,,,,,,"92-11",20
"11140 - MTBA - MUCR - Murphy Creek","MTBA",11140,"11140U","MUCR","Murphy Creek","AF","+","Darrington","Snohomish","WA","1","48 11 25","-121 31 08","01S","-","-",48.19028,-121.51889,"-",244,67,9,"disturbed coniferous forest",,,,"X","X","X","X","X","X","X","X","X","X","X","X","X",,,,,,,,,,,,,,,,,,,,,,,,,,,"92-04",13
"11141 - MTBA - BELA - Beaver Lake","MTBA",11141,"11141S","BELA","Beaver Lake","AF","+","Silverton","Snohomish","WA","1","48 09 43","-121 26 55","01S","GPS -SPORTTRAK","NAD83",48.16194,-121.44861,"x",299,67,9,"mixed coniferous forest",,,,"X","X","X","X","X","X","X","X","X","X","X","X","X","X","X","X","X","X","X","X","X","X","X","X","X",,,,,,,,,,,,,,,"92-11",20
"11143 - MTBA - PECR - Perry Creek","MTBA",11143,"11143U","PECR","Perry Creek","AF","+","Silverton","Snohomish","WA","1","48 03 44","-121 30 50","01S","GPS -SPORTTRAK","NAD83",48.06222,-121.51389,"x",512,67,9,"coniferous rainforest",,,,"X","X","X","X","X","X","X","X","X","X","X","X","X","X","X","X","X","X","X","X","X","X","X","X","X",,,,,,,,,,,,,,,"92-11",20
"11144 - MTBA - MCLA - Monte Cristo Lake","MTBA",11144,"11144U","MCLA","Monte Cristo Lake","AF","+","Silverton","Snohomish","WA","1","48 03 03","-121 25 57","01S","GPS -SPORTTRAK","NAD83",48.05083,-121.4325,"x",610,67,9,"wet meadow",,,,"X","X","X","X","X","X","X","X","X","X","X","X","X","X","X","X","X","X","X","X","X","X","X",,,,,,,,,,,,,,,,,"92-10",19
"11145 - WENA - TIME - Timothy Meadow","WENA",11145,"11145U","TIME","Timothy Meadow","AF","+","Easton","Yakima","WA","1","47 04 51","-121 15 33","01S","GPS -SPORTTRAK","NAD83",47.08083,-121.25917,"x",951,67,9,"marsh",,,,"X","X","X","X","X","X","X","X","X","X","X","X","X","X","X","X","X","X","X","X","X","X","X","X","X",,,,,,,,,,,,,,,"92-11",20
"11147 - WENA - TWPO - Two Point","WENA",11147,"11147U","TWPO","Two Point","AF","+","Cliffdell","Kittitas","WA","1","46 57 44","-120 55 38","01S","GPS -SPORTTRAK","NAD83",46.96222,-120.92722,"x",1512,85,9,"montane meadow",,,,"X","X","X","X","X","X","X","X","X","X","X","X","X","X","X","X","X","X","X","X","X","X","X","X","X",,,,,,,,,,,,,,,"92-11",20
"11148 - WENA - PLVA - Pleasant Valley","WENA",11148,"11148U","PLVA","Pleasant Valley","AF","+","Goose Prairie","Yakima","WA","1","46 56 47","-121 18 45","01S","GPS -SPORTTRAK","NAD83",46.94639,-121.3125,"x",1000,67,9,"open meadow",,,,"X","X","X","X","X","X","X","X","X","X","X","X","X","X","X","X","X","X","X","X","X","X","X","X","X",,,,,,,,,,,,,,,"92-11",20
"11149 - WENA - RASP - Rattlesnake Spring","WENA",11149,"11149U","RASP","Rattlesnake Spring","AF","+","Cliffdell","Yakima","WA","1","46 48 12","-121 03 07","01S","GPS -SPORTTRAK","NAD83",46.80333,-121.05194,"x",817,85,9,"riparian grove",,,,"X","X","X","X","X","X","X","X","X","X","X","X","X","X","X","X","X","X","X","X","X","X","X","X","X",,,,,,,,,,,,,,,"92-11",20
"11150 - WENA - DECR - Deep Creek","WENA",11150,"11150U","DECR","Deep Creek","AF","+","Goose Prairie","Yakima","WA","1","46 46 48","-121 20 23","01S","Paper map","NAD27",46.78,-121.33972,"-",1195,67,5,"fir/spruce bog",,,,"X","X","X","X","X","X","X","X","X","X","X","X","X",,,,,,,,,,,,,,,,,,,,,,,,,,,"92-04",13
"11177 - DOUG - DOUG - Douglas Creek","DOUG",11177,"11177U","DOUG","Douglas Creek","IB","+","East Wenatchee","Douglas","WA","1","47 29 18","-119 54 00","01S","-","-",47.48833,-119.9,"-",463,89,9,"desert riparian",,,,,"X","X","X","X","X","X","X","X","X","X","X","X","X","X","X","X","X","X","X","X","X","X","X","X","X","X","X","X","X","X",,,,,,,,,"93-14",22
"11206 - NISQ - DIKE - Dike","NISQ",11206,"11206U","DIKE","Dike","IW","+","McKenna","Thurston","WA","1","47 05 58","-122 42 25","01S","-","-",47.09944,-122.70694,"-",5,93,5,"decid. shrub corridor betw. wetl.",,,,,,,,,,,,"X",,,,,,,,,,,,,,,,,,,,,,,,,,,,,,,"00",1
"11207 - NISQ - REST - Restoration","NISQ",11207,"11207S","REST","Restoration","IW","+","McKenna","Thurston","WA","1","47 04 40","-122 42 30","01S","-","-",47.07778,-122.70833,"-",10,93,5,"oldfield",,,,,,,,,,,,"X","X","X",,,,,,,,,,,,,,,,,,,,,,,,,,,,,"00-02",3
"11208 - NISQ - RIVR - Riverine","NISQ",11208,"11207S","RIVR","Riverine","IW","+","McKenna","Thurston","WA","1","47 05 00","-122 42 36","01S","-","-",47.08333,-122.71,"-",9,93,5,"big-leaf maple-cottonwd rip. for.",,,,,,,,,,,,"X","X","X",,,,,,,,,,,,,,,,,,,,,,,,,,,,,"00-02",3
"11209 - NISQ - SURG - Surge Plain","NISQ",11209,"11207S","SURG","Surge Plain","IW","+","McKenna","Thurston","WA","1","47 04 29","-122 42 47","01S","-","-",47.07472,-122.71306,"-",10,93,5,"decid. rip. surge plain-tide infl",,,,,,,,,,,,"X","X","X",,,,,,,,,,,,,,,,,,,,,,,,,,,,,"00-02",3
"11215 - WALL - WALL - Wallula - McNary NWR","WALL",11215,"11215U","WALL","Wallula - McNary NWR","IW","+","Wallula","Walla Walla","WA","1","46 03 26","-118 53 16","01S","hard - topo map","NAD27",46.05722,-118.88889,"x",106,89,9,"cottonwood-willow riparian corrid",,,,,,,,,,,,,"X","X","X","X","X","X","X","X","X","X","X","X","X","X","X","X","X","X",,,,,,,,,,,,,"01-12",12
"11238 - DOUG - MCCA - McCarteney Creek","DOUG",11238,"11238U","MCCA","McCarteney Creek","P","+","Ephrata","Douglas","WA","1","47 30 27","-119 44 40","01S","Web - Google E.","NAD83",47.5075,-119.74444,"x",503,89,9,"water birch & quaking aspen ripar. woodl",,,,,,,,,,,,,,"X","X","X","X","X","X","X","X","X","X","X","X","X","X","X","X","X",,,,,,,,,,,,,"02-12",11
"11248 - BAIS - PSEL - Islandwood","BAIS",11248,"11248U","PSEL","Islandwood","P","+","Winslow","Kitsap","WA","1","47 36 25","-122 31 48","01S","-","-",47.60694,-122.53,"-",74,93,5,"mature mixed coniferous deciduous forest",,,,,,,,,,,,,,"X",,"X",,"X","X","X","X","X",,,,,,,,,,,,,,,,,,,,,"02,04,06-08",5
"11264 - WENA - LIRA - Little Rattlesnake","WENA",11264,"11264U","LIRA","Little Rattlesnake","AF","+","Rimrock","Yakima","WA","1","46 44 40","-121 05 21","01S","GPS -SPORTTRAK","NAD83",46.74444,-121.08917,"x",1280,85,9,"montane meadow",,,,,,,,,,,,,,,,,"X","X","X","X","X","X","X","X","X","X","X","X",,,,,,,,,,,,,,,"05-11",7
"11265 - MTBA - SKCR - Skull Creek","MTBA",11265,"11265U","SKCR","Skull Creek","AF","+","Silverton","Snohomish","WA","1","48 07 27","-121 24 10","01S","GPS -SPORTTRAK","NAD83",48.12417,-121.40278,"x",552,67,9,"managed coniferous forest",,,,,,,,,,,,,,,,,"X","X","X","X","X","X","X","X","X","X","X","X",,,,,,,,,,,,,,,"05-11",7
"11273 - MORA - SSPT - Sunshine Point","MORA",11273,"11273U","SSPT","Sunshine Point","IP","+","Ashford","Pierce","WA","1","-","-","-","-","-",99.99999,999.99999,"-",2100,0,0,"mixed age alder-cottnwd-cedar forest/rip",,,,,,,,,,,,,,,,,,,,,,,,,,,,,,,,,,,,,,,"X","X","X","X","17-19,21-",5
"11329 - BRGH - GHPO - Glacial Heritage Preserve","BRGH",11329,"11329U","GHPO","Glacial Heritage Preserve","C","+","Littlerock","Thurston","WA","1","46 51 23","-123 02 45","01S","GPS","NAD83",46.85639,-123.04583,"x",39,93,5,"oak-ash riparian woodland/prairie edge",,,,,,,,,,,,,,,,,,,,,,,,,,,,,,,"X","X","X","X","X","X","X","X","X","X","X","X","13-",10
"11342 - MEVA - BIGV - Big Valley","MEVA",11342,"11342U","BIGV","Big Valley","S","+","Winthrop","Okanogan","WA","1","48 30 53","-120 16 41","01S","Web - Google E.","NAD83",48.51472,-120.27806,"x",580,67,9,"riparian w aspen, cottonw, d.fir, fields",,,,,,,,,,,,,,,,,,,,,,,,,,,,,,,,,,,,,,,"X","X","X","X","17-18",2
"11901 - COLR - RNWR - Bachelor Point","COLR",11901,"11901U","RNWR","Bachelor Point","IW","+","Ridgefield","Clark","WA","1","45 47 30","-122 46 20","10S","-","-",45.79167,-122.77222,"-",3,98,5,"cottonwood/ash riparian forest",,,,,"X","X","X","X","X","X","X","X","X","X",,,,,,,,,,,,,,,,,,,,,,,,,,,,,"93-02",10
"11902 - WENA - QCR2 - Quartz Creek 2","WENA",11902,"11146S","QCR2","Quartz Creek 2","AF","+","Cliffdell","Kittitas","WA","1","47 01 16","-121 08 17","01S","GPS -SPORTTRAK","NAD83",47.02111,-121.13806,"x",853,67,9,"riparian alder riverbottom",,,,,"X","X","X","X","X","X","X","X","X","X","X","X","X","X","X","X","X","X","X","X","X","X","X","X",,,,,,,,,,,,,,,"93-11",19
"11908 - MTBA - BETH - Bench Thin","MTBA",11908,"11141S","BETH","Bench Thin","AF","+","Silverton","Snohomish","WA","1","48 10 05","-121 27 13","01S","GPS -SPORTTRAK","NAD83",48.16806,-121.45361,"x",354,67,9,"mixed coniferous forest",,,,,"X","X","X","X","X","X","X","X","X","X","X","X","X","X","X","X","X","X","X","X","X","X","X","X",,,,,,,,,,,,,,,"93-11",19
"11911 - TBWR - TBWR - Turnbull NWR","TBWR",11911,"11911U","TBWR","Turnbull NWR","IW","+","Cheney","Spokane","WA","1","47 25 24","-117 34 38","01S","-","NAD83",47.42333,-117.57722,"x",695,65,9,"aspen",,,,,,"X","X","X","X","X","X","X","X","X","X","X","X","X","X","X","X","X","X","X","X","X","X","X","X","X","X","X","X","X","X","X","X","X","X","X","X","X","94-",29
"11915 - FTLE - FTLE - Fort Lewis","FTLE",11915,"11915U","FTLE","Fort Lewis","DA","+","Roy","Pierce","WA","1","47 03 20","-122 29 15","01S","-","-",47.05556,-122.4875,"-",107,93,5,"douglas-fir/cedar forest",,,,,,"X","X","X","X","X","X","X","X","X","X","X","X","X",,,,,,,,,,,,,,,,,,,,,,,,,"94-06",13
"11948 - SPOK - LISP - Little Spokane","SPOK",11948,"11948U","LISP","Little Spokane","S","+","Spokane","Spokane","WA","1","47 46 50","-117 29 10","10S","-","-",47.78056,-117.48611,"-",470,65,10,"riparian",,,,,,,,"X","X","X","X","X","X","X","X","X","X","X",,,,,,,"X","L","X","X","X","X","X","X",,,,,,,,,,,"96-06,10-13",15
"11949 - EWAS - MTSP - Mt. Spokane","EWAS",11949,"11949U","MTSP","Mt. Spokane","S","+","Chattaroy","Spokane","WA","1","47 53 50","-117 06 50","10S","-","-",47.89722,-117.11389,"-",1100,64,10,"aspen-fir",,,,,,,,"X","X","X","X","X","X",,,,,,,,,,,,,,,,,,,,,,,,,,,,,,"96-01",6
"11951 - MORS - MORS - Morse","MORS",11951,"11951U","MORS","Morse","P","+","Graham","Pierce","WA","1","47 01 32","-122 20 07","01S","-","-",47.02556,-122.33528,"-",190,93,5,"douglas fir",,,,,,,,"X","X","X","X","X","X","X","X","X","X","X","X","X","X","X","X","X","X","X","X","X","X","X","X","X","X","X","X","X","X","X","X",,"X",,"96-",27
"11956 - COLR - STCL - St. Cloud","COLR",11956,"11956U","STCL","St. Cloud","AF","+","Skamania","Skamania","WA","1","45 36 02","-122 06 27","01S","-","-",45.60056,-122.1075,"-",25,93,5,"hardwood riparian",,,,,,,,,"X","X","X","X","X","X","X","X","X","X","X","X","X","X","X","X","X","X","X","X","X","X","X","X","X","X","X","X","X","X","X","X","X","X","97-",26
"11959 - EWAS - KFGC - Growden","EWAS",11959,"11959U","KFGC","Growden","AF","+","Rice","Ferry","WA","1","48 35 10","-118 18 20","10S","-","-",48.58611,-118.30556,"-",792,64,10,"conifer forest/riparian",,,,,,,,,"X","X","X","X","X",,,,,,,,,,,,,,,,,,,,,,,,,,,,,,"97-01",5
"11960 - EWAS - LPOW - Lower Manz - Little Pend","EWAS",11960,"11960U","LPOW","Lower Manz - Little Pend","IW","+","Arden","Stevens","WA","1","48 28 20","-117 41 30","10S","-","-",48.47222,-117.69167,"-",701,64,10,"mixed conifer/riparian",,,,,,,,,"X","X","X","X","X",,,,,,,,,,,,,,,,,,,,,,,,,,,,,,"97-01",5
"11964 - BENS - BENS - Bensten","BENS",11964,"11964U","BENS","Bensten","DO","+","Spanaway","Pierce","WA","1","47 06 04","-122 28 46","01S","-","-",47.10111,-122.47944,"-",107,93,5,"wetl./doug. fir for./riparian corridor",,,,,,,,,"X","X","X",,"X","X","X","X","X","X","X","X","X","X","X",,"X",,"X",,,,,,,,,,,,,,,,"97-99,01-11",14
"11988 - COLR - JBHR - Julia Butler Hansen W.R.","COLR",11988,"11988U","JBHR","Julia Butler Hansen W.R.","IW","+","Clatskanie, OR","Wahkiakum","WA","1","46 15 20","-123 24 49","01S","-","-",46.25556,-123.41361,"-",7,93,5,"bottomland riparian forest/fields",,,,,,,,,,"X","X","X","X","X",,,,,,,,,,,,,,,,,,,,,,,,,,,,,"98-02",5
